YAM-7                   
1 60504U 24149AN  26068.71799904  .00009009  00000+0  30984-3 0  9997
2 60504  97.3828 149.4631 0001973 296.5121  63.5918 15.30304554 86835
STARLINK-34592          
1 64746U 25144Y   26068.52569976  .00024323  00000+0  83034-3 0  9998
2 64746  53.1605 169.2442 0001438 152.0048 208.1030 15.30213038 39869
